OBJECT_NAME,OBJECT_ID,EPOCH,MEAN_MOTION,ECCENTRICITY,INCLINATION,RA_OF_ASC_NODE,ARG_OF_PERICENTER,MEAN_ANOMALY,EPHEMERIS_TYPE,CLASSIFICATION_TYPE,NORAD_CAT_ID,ELEMENT_SET_NO,REV_AT_EPOCH,BSTAR,MEAN_MOTION_DOT,MEAN_MOTION_DDOT
ONEWEB-0395,2021-132G,2026-06-11T14:20:14.322336,13.11417600,.0001982,87.8888,22.1803,89.5023,270.6332,0,U,50475,999,21498,.17192E-2,.622E-5,0
ONEWEB-0396,2021-132H,2026-06-11T22:21:43.614720,13.18684779,.00019566,87.9169,336.5003,87.4844,272.6512,0,U,50476,999,22094,.44479419E-4,.3E-6,0
ONEWEB-0397,2021-132J,2026-06-11T22:43:35.108832,13.18685143,.00019024,87.9168,336.4972,83.9254,276.2095,0,U,50477,999,22092,.65188336E-4,.39E-6,0
ONEWEB-0398,2021-132K,2026-06-11T15:23:40.956864,13.11416647,.00018816,87.8899,22.1618,94.4673,265.6670,0,U,50478,999,21488,-.14341343E-2,-.496E-5,0
ONEWEB-0399,2021-132L,2026-06-11T15:04:09.825600,13.11414268,.00022142,87.8898,22.1749,76.5449,283.5926,0,U,50479,999,21487,-.11091786E-2,-.38E-5,0
ONEWEB-0400,2021-132M,2026-06-11T22:12:01.503360,13.18684978,.00018817,87.9167,336.4915,97.1630,262.9716,0,U,50480,999,22091,.10357716E-3,.54E-6,0
ONEWEB-0401,2021-132N,2026-06-11T21:28:18.880608,13.18684850,.00016892,87.9169,336.4948,85.6999,274.4326,0,U,50481,999,22091,.10645134E-3,.55E-6,0
ONEWEB-0402,2021-132P,2026-06-11T22:24:10.550880,13.18685288,.00016203,87.9168,336.4764,77.5958,282.5355,0,U,50482,999,22094,.76333068E-4,.43E-6,0
ONEWEB-0403,2021-132Q,2026-06-11T23:00:34.767072,13.18684900,.0001983,87.9168,336.4954,90.2041,269.9319,0,U,50483,999,22090,.10429537E-3,.54E-6,0
ONEWEB-0404,2021-132R,2026-06-11T14:37:19.611264,13.11415524,.0002141,87.8892,22.1774,84.2754,275.8618,0,U,50484,999,21496,.1087E-2,.398E-5,0
ONEWEB-0405,2021-132S,2026-06-11T21:30:45.457344,13.18686515,.00019374,87.9171,336.4925,105.3217,254.8129,0,U,50485,999,22129,.11403217E-3,.58E-6,0
ONEWEB-0406,2021-132T,2026-06-11T23:07:52.061664,13.18685037,.00023847,87.9163,336.4957,87.8953,272.2452,0,U,50486,999,22093,.14702041E-3,.71E-6,0
ONEWEB-0407,2021-132U,2026-06-11T22:58:09.824160,13.18685263,.00016098,87.9167,336.4889,92.8445,267.2871,0,U,50487,999,22087,.10951176E-3,.56E-6,0
ONEWEB-0409,2021-132V,2026-06-11T14:34:52.619808,13.11416436,.0002101,87.8897,22.1656,87.3110,272.8259,0,U,50488,999,21485,.1428E-2,.519E-5,0
ONEWEB-0412,2021-132W,2026-06-11T22:41:09.112704,13.18685023,.00016809,87.9165,336.4998,82.4318,277.7005,0,U,50489,999,22096,.13303187E-3,.65E-6,0
ONEWEB-0413,2021-132X,2026-06-11T22:48:26.729568,13.18686195,.00015635,87.9157,336.4978,86.2047,273.9264,0,U,50490,999,22090,.11521892E-3,.58E-6,0
ONEWEB-0414,2021-132Y,2026-06-11T22:26:35.578464,13.18685254,.00018397,87.9168,336.4821,85.7373,274.3969,0,U,50491,999,22093,-.57718795E-4,-.1E-6,0
ONEWEB-0417,2021-132Z,2026-06-11T22:38:43.884672,13.18685260,.00020707,87.9159,336.5006,91.1279,269.0090,0,U,50492,999,22091,-.15773727E-4,.7E-7,0
ONEWEB-0418,2021-132AA,2026-06-11T22:53:06.866016,13.18685465,.00021217,87.9169,336.4976,91.5996,268.5380,0,U,50493,999,22097,.11922357E-3,.6E-6,0
ONEWEB-0419,2021-132AB,2026-06-11T12:24:11.231424,13.18665823,.0002087,87.9166,336.5843,97.3987,262.7382,0,U,50494,999,22083,.24626E-3,.11E-5,0
ONEWEB-0420,2021-132AC,2026-06-11T22:29:00.987936,13.18685658,.00016453,87.9160,336.5042,93.7882,266.3438,0,U,50495,999,22088,.98429422E-4,.52E-6,0
ONEWEB-0421,2021-132AD,2026-06-11T22:19:18.043680,13.18684566,.00018601,87.9164,336.5029,79.6624,280.4718,0,U,50496,999,22092,.28783135E-4,.24E-6,0
ONEWEB-0424,2021-132AE,2026-06-11T23:12:43.474176,13.18685008,.00020357,87.9167,336.4935,101.3373,258.7988,0,U,50497,999,22095,.65383083E-4,.39E-6,0
ONEWEB-0426,2021-132AF,2026-06-11T22:13:14.051712,13.18688487,.00023651,87.9169,336.4926,79.0725,281.0673,0,U,50498,999,22089,.47733625E-4,.32E-6,0
ONEWEB-0427,2021-132AG,2026-06-11T23:10:17.826240,13.18684635,.0002066,87.9168,336.4735,90.2128,269.9241,0,U,50499,999,22092,.12185352E-3,.61E-6,0
ONEWEB-0429,2021-132AH,2026-06-11T22:50:52.406880,13.18685423,.00017152,87.9161,336.5008,91.9619,268.1709,0,U,50500,999,22089,.35883105E-4,.27E-6,0
ONEWEB-0430,2021-132AJ,2026-06-11T22:33:52.390080,13.18686075,.00017412,87.9162,336.5017,99.5882,260.5447,0,U,50501,999,22093,.31005113E-4,.25E-6,0
ONEWEB-0432,2021-132AK,2026-06-12T00:00:02.999808,13.17164070,.00020705,87.9166,336.4648,109.1578,358.0541,0,U,50502,999,507,-.19702185E-1,-.7576E-4,0
ONEWEB-0440,2021-132AL,2026-06-11T23:03:00.498816,13.18685219,.00016267,87.9169,336.4930,83.1156,277.0161,0,U,50503,999,22088,.38140553E-4,.28E-6,0
ONEWEB-0450,2021-132AM,2026-06-11T22:53:30.350400,13.18685920,.00016575,87.9157,336.5004,94.0965,266.0356,0,U,50504,999,22091,.6231329E-4,.37E-6,0
