ONEWEB-0395             
1 50475U 21132G   26162.59738799  .00000622  00000+0  17192-2 0  9995
2 50475  87.8888  22.1803 0001982  89.5023 270.6332 13.11417600214984
ONEWEB-0396             
1 50476U 21132H   26162.93175480  .00000030  00000+0  44479-4 0  9999
2 50476  87.9169 336.5003 0001956  87.4844 272.6512 13.18684779220946
ONEWEB-0397             
1 50477U 21132J   26162.94693413  .00000039  00000+0  65188-4 0  9991
2 50477  87.9168 336.4972 0001902  83.9254 276.2095 13.18685143220927
ONEWEB-0398             
1 50478U 21132K   26162.64144626 -.00000496  00000+0 -14341-2 0  9998
2 50478  87.8899  22.1618 0001881  94.4673 265.6670 13.11416647214885
ONEWEB-0399             
1 50479U 21132L   26162.62789150 -.00000380  00000+0 -11092-2 0  9996
2 50479  87.8898  22.1749 0002214  76.5449 283.5926 13.11414268214872
ONEWEB-0400             
1 50480U 21132M   26162.92501740  .00000054  00000+0  10358-3 0  9999
2 50480  87.9167 336.4915 0001881  97.1630 262.9716 13.18684978220914
ONEWEB-0401             
1 50481U 21132N   26162.89466297  .00000055  00000+0  10645-3 0  9993
2 50481  87.9169 336.4948 0001689  85.6999 274.4326 13.18684850220913
ONEWEB-0402             
1 50482U 21132P   26162.93345545  .00000043  00000+0  76333-4 0  9995
2 50482  87.9168 336.4764 0001620  77.5958 282.5355 13.18685288220940
ONEWEB-0403             
1 50483U 21132Q   26162.95873573  .00000054  00000+0  10430-3 0  9992
2 50483  87.9168 336.4954 0001983  90.2041 269.9319 13.18684900220904
ONEWEB-0404             
1 50484U 21132R   26162.60925476  .00000398  00000+0  10870-2 0  9993
2 50484  87.8892  22.1774 0002141  84.2754 275.8618 13.11415524214962
ONEWEB-0405             
1 50485U 21132S   26162.89635946  .00000058  00000+0  11403-3 0  9992
2 50485  87.9171 336.4925 0001937 105.3217 254.8129 13.18686515221299
ONEWEB-0406             
1 50486U 21132T   26162.96379701  .00000071  00000+0  14702-3 0  9995
2 50486  87.9163 336.4957 0002384  87.8953 272.2452 13.18685037220935
ONEWEB-0407             
1 50487U 21132U   26162.95705815  .00000056  00000+0  10951-3 0  9999
2 50487  87.9167 336.4889 0001609  92.8445 267.2871 13.18685263220878
ONEWEB-0409             
1 50488U 21132V   26162.60755347  .00000519  00000+0  14280-2 0  9999
2 50488  87.8897  22.1656 0002101  87.3110 272.8259 13.11416436214855
ONEWEB-0412             
1 50489U 21132W   26162.94524436  .00000065  00000+0  13303-3 0  9992
2 50489  87.9165 336.4998 0001680  82.4318 277.7005 13.18685023220961
ONEWEB-0413             
1 50490U 21132X   26162.95030937  .00000058  00000+0  11522-3 0  9996
2 50490  87.9157 336.4978 0001563  86.2047 273.9264 13.18686195220903
ONEWEB-0414             
1 50491U 21132Y   26162.93513401 -.00000010  00000+0 -57719-4 0  9996
2 50491  87.9168 336.4821 0001839  85.7373 274.3969 13.18685254220930
ONEWEB-0417             
1 50492U 21132Z   26162.94356348  .00000007  00000+0 -15774-4 0  9993
2 50492  87.9159 336.5006 0002070  91.1279 269.0090 13.18685260220912
ONEWEB-0418             
1 50493U 21132AA  26162.95355169  .00000060  00000+0  11922-3 0  9993
2 50493  87.9169 336.4976 0002121  91.5996 268.5380 13.18685465220975
ONEWEB-0419             
1 50494U 21132AB  26162.51679666  .00000110  00000+0  24626-3 0  9998
2 50494  87.9166 336.5843 0002087  97.3987 262.7382 13.18665823220831
ONEWEB-0420             
1 50495U 21132AC  26162.93681699  .00000052  00000+0  98429-4 0  9992
2 50495  87.9160 336.5042 0001645  93.7882 266.3438 13.18685658220885
ONEWEB-0421             
1 50496U 21132AD  26162.93006995  .00000024  00000+0  28783-4 0  9998
2 50496  87.9164 336.5029 0001860  79.6624 280.4718 13.18684566220921
ONEWEB-0424             
1 50497U 21132AE  26162.96716984  .00000039  00000+0  65383-4 0  9991
2 50497  87.9167 336.4935 0002035 101.3373 258.7988 13.18685008220951
ONEWEB-0426             
1 50498U 21132AF  26162.92585708  .00000032  00000+0  47734-4 0  9999
2 50498  87.9169 336.4926 0002365  79.0725 281.0673 13.18688487220899
ONEWEB-0427             
1 50499U 21132AG  26162.96548410  .00000061  00000+0  12185-3 0  9996
2 50499  87.9168 336.4735 0002066  90.2128 269.9241 13.18684635220928
ONEWEB-0429             
1 50500U 21132AH  26162.95199545  .00000027  00000+0  35883-4 0  9992
2 50500  87.9161 336.5008 0001715  91.9619 268.1709 13.18685423220893
ONEWEB-0430             
1 50501U 21132AJ  26162.94018970  .00000025  00000+0  31005-4 0  9994
2 50501  87.9162 336.5017 0001741  99.5882 260.5447 13.18686075220934
ONEWEB-0432             
1 50502U 21132AK  26163.00003472 -.00007576  00000+0 -19702-1 0  9991
2 50502  87.9166 336.4648 0002070 109.1578 358.0541 13.17164070  5073
ONEWEB-0440             
1 50503U 21132AL  26162.96042244  .00000028  00000+0  38141-4 0  9990
2 50503  87.9169 336.4930 0001626  83.1156 277.0161 13.18685219220880
ONEWEB-0450             
1 50504U 21132AM  26162.95382350  .00000037  00000+0  62313-4 0  9993
2 50504  87.9157 336.5004 0001657  94.0965 266.0356 13.18685920220911
